[{"OBJECT_NAME":"SHIYAN-1 (SY-1)","OBJECT_ID":"2004-012A","EPOCH":"2026-03-09T17:40:34.066560","MEAN_MOTION":15.31043463,"ECCENTRICITY":0.00058726,"INCLINATION":97.8764,"RA_OF_ASC_NODE":140.5238,"ARG_OF_PERICENTER":23.6952,"MEAN_ANOMALY":336.4557,"EPHEMERIS_TYPE":0,"CLASSIFICATION_TYPE":"U","NORAD_CAT_ID":28220,"ELEMENT_SET_NO":999,"REV_AT_EPOCH":19586,"BSTAR":0.00054854449,"MEAN_MOTION_DOT":0.00016393,"MEAN_MOTION_DDOT":0},{"OBJECT_NAME":"STARLINK-2587","OBJECT_ID":"2021-038AY","EPOCH":"2026-03-09T21:22:22.853856","MEAN_MOTION":15.30202798,"ECCENTRICITY":0.00011629,"INCLINATION":53.1597,"RA_OF_ASC_NODE":331.6686,"ARG_OF_PERICENTER":88.6964,"MEAN_ANOMALY":271.417,"EPHEMERIS_TYPE":0,"CLASSIFICATION_TYPE":"U","NORAD_CAT_ID":48399,"ELEMENT_SET_NO":999,"REV_AT_EPOCH":26868,"BSTAR":0.00018401146,"MEAN_MOTION_DOT":5.095e-5,"MEAN_MOTION_DDOT":0}]
